NORAD_CAT_ID,OBJECT_NAME,OBJECT_TYPE,EPOCH,MEAN_MOTION,ECCENTRICITY,INCLINATION,RA_OF_ASC_NODE,ARG_OF_PERICENTER,MEAN_ANOMALY,BSTAR,MEAN_MOTION_DOT,MEAN_MOTION_DDOT,TLE_LINE0,TLE_LINE1,TLE_LINE2,SEMIMAJOR_AXIS,PERIOD,APOGEE,PERIGEE,DECAYED
53564.0,STARLINK-4577,PAYLOAD,2023-12-30 10:32:45,15.08841324,0.0001525,53.2185,46.6542,85.5461,274.5705,0.00010345,1.359e-05,0.0,0 STARLINK-4577,1 53564U 22101AP  23364.43941105  .00001359  00000-0  10345-3 0  9998,2 53564  53.2185  46.6542 0001525  85.5461 274.5705 15.08841324 75635,6917.876,95.437,540.796,538.686,0.0
53564.0,STARLINK-4577,PAYLOAD,2023-12-31 11:58:55,15.08840556,0.0001393,53.2176,41.8948,86.7452,273.37,3.2654e-05,2.32e-06,0.0,0 STARLINK-4577,1 53564U 22101AP  23365.49925438  .00000232  00000-0  32654-4 0  9993,2 53564  53.2176  41.8948 0001393  86.7452 273.3700 15.08840556 75793,6917.879,95.438,540.707,538.78,0.0
53564.0,STARLINK-4577,PAYLOAD,2024-01-01 08:38:55,15.08846687,0.0001529,53.2175,38.03,80.298,279.8185,5.3578e-05,5.65e-06,0.0,0 STARLINK-4577,1 53564U 22101AP  24001.36036995  .00000565  00000-0  53578-4 0  9995,2 53564  53.2175  38.0300 0001529  80.2980 279.8185 15.08846687 75922,6917.86,95.437,540.783,538.667,0.0
53564.0,STARLINK-4577,PAYLOAD,2024-01-02 02:08:09,15.0888657,0.0001288,53.2176,34.7595,70.5153,289.5979,-0.00053445,-8.794e-05,0.0,0 STARLINK-4577,1 53564U 22101AP  24002.08900292 -.00008794  00000-0 -53445-3 0  9991,2 53564  53.2176  34.7595 0001288  70.5153 289.5979 15.08886570 76035,6917.738,95.435,540.494,538.712,0.0
53564.0,STARLINK-4577,PAYLOAD,2024-01-02 08:29:43,15.08840091,0.0001537,53.2176,33.5696,83.8821,276.2346,9.0412e-05,1.151e-05,0.0,0 STARLINK-4577,1 53564U 22101AP  24002.35397129  .00001151  00000-0  90412-4 0  9994,2 53564  53.2176  33.5696 0001537  83.8821 276.2346 15.08840091 76073,6917.88,95.438,540.808,538.682,0.0
53564.0,STARLINK-4577,PAYLOAD,2024-01-03 08:20:30,15.08836909,0.0001586,53.2181,29.1092,100.501,259.6161,-2.8572e-05,-7.43e-06,0.0,0 STARLINK-4577,1 53564U 22101AP  24003.34757601 -.00000743  00000-0 -28572-4 0  9995,2 53564  53.2181  29.1092 0001586 100.5010 259.6161 15.08836909 76221,6917.89,95.438,540.852,538.658,0.0
53564.0,STARLINK-4577,PAYLOAD,2024-01-04 05:00:31,15.08836103,0.0001563,53.2183,25.2431,98.0365,262.0805,-1.1092e-06,-3.06e-06,0.0,0 STARLINK-4577,1 53564U 22101AP  24004.20869739 -.00000306  00000-0 -11092-5 0  9992,2 53564  53.2183  25.2431 0001563  98.0365 262.0805 15.08836103 76359,6917.892,95.438,540.839,538.676,0.0
53564.0,STARLINK-4577,PAYLOAD,2024-01-04 06:35:54,15.0883664,0.0001581,53.2185,24.9459,98.6793,261.4378,3.6879e-06,-2.29e-06,0.0,0 STARLINK-4577,1 53564U 22101AP  24004.27493698 -.00000229  00000-0  36879-5 0  9999,2 53564  53.2185  24.9459 0001581  98.6793 261.4378 15.08836640 76363,6917.891,95.438,540.849,538.662,0.0
53564.0,STARLINK-4577,PAYLOAD,2024-01-05 04:51:18,15.08833739,0.0001538,53.2187,20.7823,99.7678,260.3488,4.781e-05,4.73e-06,0.0,0 STARLINK-4577,1 53564U 22101AP  24005.20229989  .00000473  00000-0  47810-4 0  9999,2 53564  53.2187  20.7823 0001538  99.7678 260.3488 15.08833739 76502,6917.9,95.438,540.828,538.701,0.0
53564.0,STARLINK-4577,PAYLOAD,2024-01-05 09:37:27,15.08837124,0.000158,53.2186,19.8902,100.2029,259.9142,7.2455e-05,8.65e-06,0.0,0 STARLINK-4577,1 53564U 22101AP  24005.40101774  .00000865  00000-0  72455-4 0  9990,2 53564  53.2186  19.8902 0001580 100.2029 259.9142 15.08837124 76539,6917.889,95.438,540.847,538.661,0.0
53564.0,STARLINK-4577,PAYLOAD,2024-01-06 04:42:09,15.08787828,0.0001295,53.2189,16.3215,96.7445,263.3695,-0.00036934,-6.153e-05,0.0,0 STARLINK-4577,1 53564U 22101AP  24006.19594626 -.00006153  00000-0 -36934-3 0  9998,2 53564  53.2189  16.3215 0001295  96.7445 263.3695 15.08787828 76655,6918.04,95.441,540.801,539.009,0.0
53564.0,STARLINK-4577,PAYLOAD,2024-01-06 09:28:16,15.08827191,0.0001516,53.2195,15.4296,103.2394,256.8768,-2.28e-05,-6.51e-06,0.0,0 STARLINK-4577,1 53564U 22101AP  24006.39463695 -.00000651  00000-0 -22800-4 0  9996,2 53564  53.2195  15.4296 0001516 103.2394 256.8768 15.08827191 76683,6917.92,95.438,540.833,538.736,0.0
53564.0,STARLINK-4577,PAYLOAD,2024-01-06 23:46:44,15.08838264,0.000141,53.2192,12.7537,85.5627,274.5526,2.5513e-05,1.18e-06,0.0,0 STARLINK-4577,1 53564U 22101AP  24006.99079246  .00000118  00000-0  25513-4 0  9997,2 53564  53.2192  12.7537 0001410  85.5627 274.5526 15.08838264 76774,6917.886,95.438,540.726,538.775,0.0
53564.0,STARLINK-4577,PAYLOAD,2024-01-07 09:19:02,15.08850068,0.0001392,53.2185,10.9703,90.6566,269.4585,0.00012136,1.645e-05,0.0,0 STARLINK-4577,1 53564U 22101AP  24007.38822207  .00001645  00000-0  12136-3 0  9996,2 53564  53.2185  10.9703 0001392  90.6566 269.4585 15.08850068 76830,6917.85,95.437,540.678,538.752,0.0
53564.0,STARLINK-4577,PAYLOAD,2024-01-08 04:23:40,15.08820742,0.0001438,53.2184,7.4008,93.934,266.1816,0.00048015,7.358e-05,0.0,0 STARLINK-4577,1 53564U 22101AP  24008.18310710  .00007358  00000-0  48015-3 0  9998,2 53564  53.2184   7.4008 0001438  93.9340 266.1816 15.08820742 76955,6917.939,95.439,540.799,538.809,0.0
53564.0,STARLINK-4577,PAYLOAD,2024-01-08 07:34:26,15.08826986,0.0001416,53.2181,6.8085,87.1672,272.9482,0.00050023,7.679e-05,0.0,0 STARLINK-4577,1 53564U 22101AP  24008.31558543  .00007679  00000-0  50023-3 0  9999,2 53564  53.2181   6.8085 0001416  87.1672 272.9482 15.08826986 76971,6917.92,95.438,540.765,538.806,0.0
53564.0,STARLINK-4577,PAYLOAD,2024-01-09 09:00:36,15.08855474,0.0001793,53.2189,2.0435,65.24,294.8778,2.0384e-05,3.6e-07,0.0,0 STARLINK-4577,1 53564U 22101AP  24009.37541741  .00000036  00000-0  20384-4 0  9996,2 53564  53.2189   2.0435 0001793  65.2400 294.8778 15.08855474 77134,6917.833,95.437,540.938,538.458,0.0
53564.0,STARLINK-4577,PAYLOAD,2024-01-10 04:05:13,15.08850491,0.0001671,53.2187,358.4778,103.6331,256.4848,-6.5167e-05,-1.325e-05,0.0,0 STARLINK-4577,1 53564U 22101AP  24010.17029825 -.00001325  00000-0 -65167-4 0  9992,2 53564  53.2187 358.4778 0001671 103.6331 256.4848 15.08850491 77254,6917.848,95.437,540.869,538.557,0.0
53564.0,STARLINK-4577,PAYLOAD,2024-01-10 08:51:22,15.08851628,0.000166,53.2189,357.5864,86.3664,273.7518,-1.0631e-05,-4.57e-06,0.0,0 STARLINK-4577,1 53564U 22101AP  24010.36901613 -.00000457  00000-0 -10631-4 0  9998,2 53564  53.2189 357.5864 0001660  86.3664 273.7518 15.08851628 77288,6917.845,95.437,540.858,538.561,0.0
53564.0,STARLINK-4577,PAYLOAD,2024-01-11 03:56:01,15.08843091,0.0001576,53.2182,354.0167,103.0828,257.0341,-3.2788e-05,-8.1e-06,0.0,0 STARLINK-4577,1 53564U 22101AP  24011.16390140 -.00000810  00000-0 -32788-4 0  9994,2 53564  53.2182 354.0167 0001576 103.0828 257.0341 15.08843091 77402,6917.871,95.437,540.826,538.646,0.0
53564.0,STARLINK-4577,PAYLOAD,2024-01-11 08:42:10,15.0884677,0.0001568,53.2183,353.1233,100.1888,259.9281,2.394e-05,9.3e-07,0.0,0 STARLINK-4577,1 53564U 22101AP  24011.36261689  .00000093  00000-0  23940-4 0  9992,2 53564  53.2183 353.1233 0001568 100.1888 259.9281 15.08846770 77436,6917.86,95.437,540.809,538.64,0.0
53564.0,STARLINK-4577,PAYLOAD,2024-01-12 08:32:57,15.08840266,0.0001625,53.2191,348.6617,105.8094,254.3077,-2.4802e-05,-6.83e-06,0.0,0 STARLINK-4577,1 53564U 22101AP  24012.35622390 -.00000683  00000-0 -24802-4 0  9997,2 53564  53.2191 348.6617 0001625 105.8094 254.3077 15.08840266 77587,6917.88,95.438,540.869,538.62,0.0
53564.0,STARLINK-4577,PAYLOAD,2024-01-13 06:48:21,15.08848276,0.0001692,53.2191,344.4984,113.1601,246.9569,1.641e-05,-2.7e-07,0.0,0 STARLINK-4577,1 53564U 22101AP  24013.28358034 -.00000027  00000-0  16410-4 0  9998,2 53564  53.2191 344.4984 0001692 113.1601 246.9569 15.08848276 77726,6917.855,95.437,540.891,538.55,0.0
53564.0,STARLINK-4577,PAYLOAD,2024-01-14 03:28:23,15.08835204,0.0001676,53.2186,340.634,97.3251,262.7931,5.5451e-05,5.94e-06,0.0,0 STARLINK-4577,1 53564U 22101AP  24014.14471163  .00000594  00000-0  55451-4 0  9999,2 53564  53.2186 340.6340 0001676  97.3251 262.7931 15.08835204 77850,6917.895,95.438,540.919,538.601,0.0
53564.0,STARLINK-4577,PAYLOAD,2024-01-14 06:39:08,15.08842896,0.0001593,53.219,340.0411,97.3342,262.7832,8.6294e-05,1.086e-05,0.0,0 STARLINK-4577,1 53564U 22101AP  24014.27718619  .00001086  00000-0  86294-4 0  9999,2 53564  53.2190 340.0411 0001593  97.3342 262.7832 15.08842896 77874,6917.872,95.437,540.839,538.635,0.0
53564.0,STARLINK-4577,PAYLOAD,2024-01-15 06:29:54,15.0886113,0.0001494,53.2189,335.5813,94.4722,265.6441,0.00017089,2.434e-05,0.0,0 STARLINK-4577,1 53564U 22101AP  24015.27077332  .00002434  00000-0  17089-3 0  9993,2 53564  53.2189 335.5813 0001494  94.4722 265.6441 15.08861130 78025,6917.816,95.436,540.714,538.647,0.0
53564.0,STARLINK-4577,PAYLOAD,2024-01-16 06:20:43,15.08842345,0.0001927,53.2193,331.1199,90.9321,269.1892,3.4837e-05,2.66e-06,0.0,0 STARLINK-4577,1 53564U 22101AP  24016.26439087  .00000266  00000-0  34837-4 0  9994,2 53564  53.2193 331.1199 0001927  90.9321 269.1892 15.08842345 78178,6917.873,95.437,541.071,538.405,0.0
53564.0,STARLINK-4577,PAYLOAD,2024-01-17 03:00:43,15.0885202,0.0001799,53.2198,327.2527,95.1778,264.942,-5.8417e-06,-3.81e-06,0.0,0 STARLINK-4577,1 53564U 22101AP  24017.12550430 -.00000381  00000-0 -58417-5 0  9997,2 53564  53.2198 327.2527 0001799  95.1778 264.9420 15.08852020 78300,6917.844,95.437,540.953,538.464,0.0
53564.0,STARLINK-4577,PAYLOAD,2024-01-18 01:16:08,15.08839238,0.0001584,53.2192,323.0941,98.5069,261.6103,2.7295e-05,1.46e-06,0.0,0 STARLINK-4577,1 53564U 22101AP  24018.05287277  .00000146  00000-0  27295-4 0  9992,2 53564  53.2192 323.0941 0001584  98.5069 261.6103 15.08839238 78443,6917.883,95.438,540.844,538.652,0.0
53564.0,STARLINK-4577,PAYLOAD,2024-01-18 06:02:17,15.08843404,0.0001676,53.2187,322.1989,115.9766,244.1399,2.4883e-05,1.08e-06,0.0,0 STARLINK-4577,1 53564U 22101AP  24018.25158839  .00000108  00000-0  24883-4 0  9993,2 53564  53.2187 322.1989 0001676 115.9766 244.1399 15.08843404 78475,6917.87,95.437,540.894,538.576,0.0
